OBJECT_NAME,OBJECT_ID,EPOCH,MEAN_MOTION,ECCENTRICITY,INCLINATION,RA_OF_ASC_NODE,ARG_OF_PERICENTER,MEAN_ANOMALY,EPHEMERIS_TYPE,CLASSIFICATION_TYPE,NORAD_CAT_ID,ELEMENT_SET_NO,REV_AT_EPOCH,BSTAR,MEAN_MOTION_DOT,MEAN_MOTION_DDOT
ONEWEB-0130,2020-100U,2026-06-11T22:18:29.193120,13.12442243,.00017171,87.8947,351.6974,91.8440,268.2885,0,U,47276,999,26395,-.1113292E-2,-.388E-5,0
ONEWEB-0131,2020-100V,2026-06-11T22:13:35.745888,13.12442790,.0001749,87.8937,351.7171,89.8458,270.2870,0,U,47277,999,26399,-.73107191E-3,-.25E-5,0
ONEWEB-0132,2020-100W,2026-06-11T22:55:05.168352,13.12444695,.00017377,87.8940,351.7134,88.8063,271.3265,0,U,47278,999,26389,.1456475E-4,.18E-6,0
ONEWEB-0133,2020-100X,2026-06-11T12:20:35.278080,13.12444561,.0001653,87.8951,351.7764,87.0152,273.1166,0,U,47279,999,26399,.12924E-2,.478E-5,0
ONEWEB-0134,2020-100Y,2026-06-11T22:35:33.012384,13.12443017,.00015942,87.8950,351.6885,95.7492,264.3818,0,U,47280,999,26402,-.15805405E-2,-.556E-5,0
ONEWEB-0135,2020-100Z,2026-06-11T21:54:05.311872,13.12442770,.00014762,87.8937,351.7177,92.4720,267.6578,0,U,47281,999,26404,.33247447E-3,.132E-5,0
ONEWEB-0136,2020-100AA,2026-06-11T13:12:00.445824,13.12443517,.0001548,87.8945,351.7704,96.8513,263.2791,0,U,47282,999,26392,-.11027E-2,-.384E-5,0
ONEWEB-0137,2020-100AB,2026-06-11T23:09:42.970752,13.12444526,.00019454,87.8950,351.6981,89.0007,271.1344,0,U,47283,999,26388,.86713223E-3,.325E-5,0
ONEWEB-0138,2020-100AC,2026-06-11T22:38:00.072960,13.12443894,.00016736,87.8949,351.7081,96.2453,263.8866,0,U,47284,999,26396,-.86862756E-3,-.3E-5,0
ONEWEB-0139,2020-100AD,2026-06-11T12:38:03.744672,13.12443609,.0001783,87.8946,351.7773,91.0460,269.0872,0,U,47285,999,26398,.80416E-3,.302E-5,0
ONEWEB-0140,2020-100AE,2026-06-11T22:30:40.629600,13.12443587,.00016824,87.8948,351.6863,85.6769,274.4551,0,U,47286,999,26400,-.11321942E-2,-.395E-5,0
ONEWEB-0141,2020-100AF,2026-06-11T21:46:34.438656,13.12443641,.00021145,87.8948,351.6973,90.4703,269.6668,0,U,47287,999,26398,.93444458E-3,.349E-5,0
ONEWEB-0142,2020-100AG,2026-06-11T21:29:55.530240,13.12443104,.0002078,87.8942,351.7215,99.0145,261.1219,0,U,47288,999,26397,.1114443E-2,.414E-5,0
ONEWEB-0143,2020-100AH,2026-06-11T21:44:20.127264,13.12443249,.00018295,87.8947,351.7180,89.4863,270.6475,0,U,47289,999,26395,.10143984E-2,.378E-5,0
ONEWEB-0144,2020-100AJ,2026-06-11T22:52:39.531648,13.12445133,.00017624,87.8952,351.6825,101.7848,258.3478,0,U,47290,999,26388,-.43043335E-4,-.3E-7,0
ONEWEB-0145,2020-100AK,2026-06-11T22:11:09.753216,13.12443472,.00018093,87.8939,351.7161,92.4247,267.7089,0,U,47291,999,26407,-.36398347E-3,-.118E-5,0
ONEWEB-0146,2020-100AL,2026-06-11T22:06:17.447328,13.12442404,.00017505,87.8947,351.7083,78.3452,281.7873,0,U,47292,999,26398,-.33546553E-3,-.108E-5,0
ONEWEB-0147,2020-100AM,2026-06-11T23:07:16.603104,13.12444874,.00016502,87.8948,351.6818,90.0655,270.0663,0,U,47293,999,26388,.828815E-3,.311E-5,0
ONEWEB-0115,2021-025A,2026-06-11T22:04:01.674912,13.13469079,.00017754,87.8954,321.2720,93.4606,266.6726,0,U,48042,999,25290,-.58923524E-3,-.202E-5,0
ONEWEB-0152,2021-025B,2026-06-11T22:23:31.428096,13.13469898,.00017465,87.8955,321.2661,91.8700,268.2629,0,U,48043,999,25286,-.76792945E-3,-.268E-5,0
ONEWEB-0153,2021-025C,2026-06-11T21:51:50.098464,13.13469597,.00018492,87.8950,321.2737,97.5351,262.5988,0,U,48044,999,25285,-.76272939E-4,-.15E-6,0
ONEWEB-0154,2021-025D,2026-06-11T21:46:57.638784,13.13469109,.00017012,87.8951,321.2718,95.4147,264.7177,0,U,48045,999,25281,.17965003E-3,.78E-6,0
ONEWEB-0116,2021-025E,2026-06-11T22:43:00.634368,13.13468986,.00017353,87.8956,321.2607,92.2534,267.8794,0,U,48046,999,25296,-.11968234E-3,-.31E-6,0
ONEWEB-0150,2021-025F,2026-06-11T22:08:53.890944,13.13469499,.00020087,87.8957,321.2626,94.0352,266.1007,0,U,48047,999,25285,-.73203075E-3,-.255E-5,0
ONEWEB-0107,2021-025G,2026-06-11T22:11:20.160096,13.13469581,.00019404,87.8960,321.2583,102.7114,257.4232,0,U,48048,999,25283,-.89213444E-3,-.313E-5,0
ONEWEB-0101,2021-025H,2026-06-11T23:07:24.423168,13.13470607,.00017203,87.8947,321.2667,99.7721,260.3602,0,U,48049,999,25281,.75099925E-3,.287E-5,0
ONEWEB-0113,2021-025J,2026-06-11T21:55:14.029248,13.13893901,.00018346,87.8952,321.1873,92.6804,267.4535,0,U,48050,999,25291,-.28921504E-3,-.94E-6,0
ONEWEB-0112,2021-025K,2026-06-11T22:18:38.924352,13.13469806,.00017179,87.8957,321.2554,103.0906,257.0415,0,U,48051,999,25290,-.88989528E-3,-.312E-5,0
ONEWEB-0156,2021-025L,2026-06-11T22:30:50.007456,13.13470443,.00019284,87.8957,321.2637,98.1481,261.9867,0,U,48052,999,25288,-.64393391E-3,-.222E-5,0
ONEWEB-0161,2021-025M,2026-06-11T21:54:16.295040,13.13469642,.00019289,87.8957,321.2699,99.4470,260.6877,0,U,48053,999,25281,-.18925053E-3,-.56E-6,0
