ONEWEB-0130             
1 47276U 20100U   26162.92950455 -.00000388  00000+0 -11133-2 0  9996
2 47276  87.8947 351.6974 0001717  91.8440 268.2885 13.12442243263958
ONEWEB-0131             
1 47277U 20100V   26162.92610817 -.00000250  00000+0 -73107-3 0  9990
2 47277  87.8937 351.7171 0001749  89.8458 270.2870 13.12442790263997
ONEWEB-0132             
1 47278U 20100W   26162.95492093  .00000018  00000+0  14565-4 0  9992
2 47278  87.8940 351.7134 0001737  88.8063 271.3265 13.12444695263894
ONEWEB-0133             
1 47279U 20100X   26162.51429720  .00000478  00000+0  12924-2 0  9997
2 47279  87.8951 351.7764 0001653  87.0152 273.1166 13.12444561263996
ONEWEB-0134             
1 47280U 20100Y   26162.94135431 -.00000556  00000+0 -15805-2 0  9999
2 47280  87.8950 351.6885 0001594  95.7492 264.3818 13.12443017264023
ONEWEB-0135             
1 47281U 20100Z   26162.91256148  .00000132  00000+0  33247-3 0  9995
2 47281  87.8937 351.7177 0001476  92.4720 267.6578 13.12442770264047
ONEWEB-0136             
1 47282U 20100AA  26162.55000516 -.00000384  00000+0 -11027-2 0  9994
2 47282  87.8945 351.7704 0001548  96.8513 263.2791 13.12443517263926
ONEWEB-0137             
1 47283U 20100AB  26162.96508068  .00000325  00000+0  86713-3 0  9993
2 47283  87.8950 351.6981 0001945  89.0007 271.1344 13.12444526263880
ONEWEB-0138             
1 47284U 20100AC  26162.94305640 -.00000300  00000+0 -86863-3 0  9994
2 47284  87.8949 351.7081 0001673  96.2453 263.8866 13.12443894263967
ONEWEB-0139             
1 47285U 20100AD  26162.52643223  .00000302  00000+0  80416-3 0  9999
2 47285  87.8946 351.7773 0001783  91.0460 269.0872 13.12443609263987
ONEWEB-0140             
1 47286U 20100AE  26162.93797025 -.00000395  00000+0 -11322-2 0  9998
2 47286  87.8948 351.6863 0001682  85.6769 274.4551 13.12443587264001
ONEWEB-0141             
1 47287U 20100AF  26162.90734304  .00000349  00000+0  93444-3 0  9990
2 47287  87.8948 351.6973 0002114  90.4703 269.6668 13.12443641263989
ONEWEB-0142             
1 47288U 20100AG  26162.89578160  .00000414  00000+0  11144-2 0  9994
2 47288  87.8942 351.7215 0002078  99.0145 261.1219 13.12443104263970
ONEWEB-0143             
1 47289U 20100AH  26162.90578851  .00000378  00000+0  10144-2 0  9992
2 47289  87.8947 351.7180 0001829  89.4863 270.6475 13.12443249263957
ONEWEB-0144             
1 47290U 20100AJ  26162.95323532 -.00000003  00000+0 -43043-4 0  9996
2 47290  87.8952 351.6825 0001762 101.7848 258.3478 13.12445133263889
ONEWEB-0145             
1 47291U 20100AK  26162.92441844 -.00000118  00000+0 -36398-3 0  9992
2 47291  87.8939 351.7161 0001809  92.4247 267.7089 13.12443472264078
ONEWEB-0146             
1 47292U 20100AL  26162.92103527 -.00000108  00000+0 -33547-3 0  9998
2 47292  87.8947 351.7083 0001750  78.3452 281.7873 13.12442404263987
ONEWEB-0147             
1 47293U 20100AM  26162.96338661  .00000311  00000+0  82881-3 0  9991
2 47293  87.8948 351.6818 0001650  90.0655 270.0663 13.12444874263889
ONEWEB-0115             
1 48042U 21025A   26162.91946383 -.00000202  00000+0 -58924-3 0  9994
2 48042  87.8954 321.2720 0001775  93.4606 266.6726 13.13469079252902
ONEWEB-0152             
1 48043U 21025B   26162.93300264 -.00000268  00000+0 -76793-3 0  9995
2 48043  87.8955 321.2661 0001746  91.8700 268.2629 13.13469898252867
ONEWEB-0153             
1 48044U 21025C   26162.91099651 -.00000015  00000+0 -76273-4 0  9993
2 48044  87.8950 321.2737 0001849  97.5351 262.5988 13.13469597252856
ONEWEB-0154             
1 48045U 21025D   26162.90761156  .00000078  00000+0  17965-3 0  9998
2 48045  87.8951 321.2718 0001701  95.4147 264.7177 13.13469109252813
ONEWEB-0116             
1 48046U 21025E   26162.94653512 -.00000031  00000+0 -11968-3 0  9997
2 48046  87.8956 321.2607 0001735  92.2534 267.8794 13.13468986252965
ONEWEB-0150             
1 48047U 21025F   26162.92284596 -.00000255  00000+0 -73203-3 0  9996
2 48047  87.8957 321.2626 0002008  94.0352 266.1007 13.13469499252857
ONEWEB-0107             
1 48048U 21025G   26162.92453889 -.00000313  00000+0 -89213-3 0  9993
2 48048  87.8960 321.2583 0001940 102.7114 257.4232 13.13469581252834
ONEWEB-0101             
1 48049U 21025H   26162.96347712  .00000287  00000+0  75100-3 0  9993
2 48049  87.8947 321.2667 0001720  99.7721 260.3602 13.13470607252811
ONEWEB-0113             
1 48050U 21025J   26162.91335682 -.00000094  00000+0 -28922-3 0  9991
2 48050  87.8952 321.1873 0001834  92.6804 267.4535 13.13893901252917
ONEWEB-0112             
1 48051U 21025K   26162.92961718 -.00000312  00000+0 -88990-3 0  9992
2 48051  87.8957 321.2554 0001717 103.0906 257.0415 13.13469806252904
ONEWEB-0156             
1 48052U 21025L   26162.93807879 -.00000222  00000+0 -64393-3 0  9992
2 48052  87.8957 321.2637 0001928  98.1481 261.9867 13.13470443252884
ONEWEB-0161             
1 48053U 21025M   26162.91268860 -.00000056  00000+0 -18925-3 0  9997
2 48053  87.8957 321.2699 0001928  99.4470 260.6877 13.13469642252814
